PSAT2 (NO-104)          
1 44354U 19036R   21275.00177621  .00030712  00000-0  39181-3 0  9998
2 44354  28.5272 134.8062 0312208 354.3457   5.3661 15.16996563125155
BRICSAT2 (NO-103)       
1 44355U 19036S   21275.45101180  .00069904 -47967-5  66393-3 0  9994
2 44355  28.5247  66.9621 0233907 104.5202 258.1463 15.37843239125865
2019-036U               
1 44357U 19036U   21274.99824238  .00029984  00000-0  37525-3 0  9990
2 44357  28.5245 132.5375 0312859 358.2878   1.6638 15.17269845125174
FORMOSAT 7-5            
1 44358U 19036V   21275.06780983  .00002019  00000-0  10633-3 0  9999
2 44358  23.9990 173.3314 0006894  71.9962 288.1292 15.07961474122675
CP9 (LEO)               
1 44360U 19036X   21275.45825102  .00324452  27124-4  10192-2 0  9995
2 44360  28.4966 325.9391 0094810 270.1651  88.8095 15.82876501126729
2019-036Y               
1 44361U 19036Y   21275.25649794  .00249866  11838-4  94477-3 0  9994
2 44361  28.5071 334.6032 0112199 255.6920 103.1208 15.76965931126642
RED-EYE 1 (PINOT)       
1 44364U 98067QJ  21275.31591928  .00015324  00000-0  17938-3 0  9992
2 44364  51.6381 136.1719 0005068 278.9907  81.0513 15.61752889128872
PAINANI 1               
1 44365U 19037A   21275.42780327  .00009888  00000-0  23060-3 0  9999
2 44365  45.0053  21.0894 0002624 123.0931 237.0210 15.42535147127280
PROMETHEUS 2-9          
1 44366U 19037B   21274.97722203  .00029467  00000-0  54763-3 0  9997
2 44366  45.0093   7.1174 0001982  95.2957 264.8161 15.48431293127416
GLOBAL-3                
1 44367U 19037C   21274.77454661  .00009166  00000-0  22077-3 0  9993
2 44367  45.0079  23.0910 0006029  84.8100 275.3476 15.41637838127206
ELECTRON KICK STAGE R/B 
1 44368U 19037D   21275.24150514  .00027802  00000-0  43243-3 0  9992
2 44368  45.0039 347.6696 0004332 111.5381 248.5974 15.53463084127661
ACRUX 1                 
1 44369U 19037E   21275.40983012  .00018471  00000-0  32683-3 0  9996
2 44369  45.0063 352.4230 0007221  98.0854 262.0857 15.50067402127573
SPACEBEE-9              
1 44370U 19037F   21275.41242810  .00080719  00000-0  72598-3 0  9996
2 44370  44.9950 324.2664 0006445  57.6474 302.5047 15.67307320127904
PROMETHEUS 2-7          
1 44374U 19037K   21275.27255799  .00021533  00000-0  39275-3 0  9998
2 44374  45.0068   3.3618 0001762  97.8903 262.2189 15.49130177127299
PROMETHEUS 2-6          
1 44386U 19036AB  21275.06276850  .00135257 -18896-5  11205-2 0  9997
2 44386  28.5351  49.6003 0208635 131.8229 230.0390 15.45523980124728
METEOR-M2 2             
1 44387U 19038A   21275.50817451 -.00000023  00000-0  91165-5 0  9998
2 44387  98.6824 233.9048 0001012   0.2427 359.8747 14.23691522116706
2019-038B               
1 44388U 19038B   21275.40974576  .00005244  00000-0  43141-3 0  9998
2 44388  97.7788 239.9343 0022975  21.8488 338.3709 14.99350221122716
ICEYE-X5                
1 44389U 19038C   21275.40246456  .00002149  00000-0  19001-3 0  9997
2 44389  97.7918 239.7634 0021426  18.4328 341.7671 14.97239449122664
ICEYE-X4                
1 44390U 19038D   21275.40061887  .00001325  00000-0  11971-3 0  9995
2 44390  97.7891 239.5338 0021224  18.9371 341.2637 14.97040057122666
NSL-1                   
1 44391U 19038E   21275.15924325  .00003084  00000-0  26272-3 0  9997
2 44391  97.7850 239.9534 0020442  14.6084 345.5725 14.98365616122598
VDNH-80                 
1 44392U 19038G   21275.49391034  .00003309  00000-0  18484-3 0  9996
2 44392  97.5985 239.7881 0019598 306.7964 176.8536 15.14074185123785
D-STAR ONE (LIGHTSAT)   
1 44393U 19038H   21274.88061990  .00003742  00000-0  20903-3 0  9994
2 44393  97.5997 239.0458 0019880 309.2803  50.6664 15.13978585123884
AMGU-1 (AMURSAT)        
1 44394U 19038J   21275.16063974  .00003860  00000-0  21548-3 0  9998
2 44394  97.5987 239.2662 0020024 308.4279  51.5176 15.13987818123925
2019-038K               
1 44395U 19038K   21275.42866789  .00002181  00000-0  12728-3 0  9998
2 44395  97.5999 238.6592 0023349 306.1415 170.8582 15.12807785123899
LEMUR-2-LILLYJO         
1 44396U 19038L   21275.17430999  .00004526  00000-0  24588-3 0  9993
2 44396  97.5888 238.8987 0022086 302.2547  57.6544 15.14818538123932
2019-038M               
1 44397U 19038M   21275.16886243  .00003445  00000-0  19523-3 0  9992
2 44397  97.5971 238.6550 0023448 303.6461  56.2567 15.13459955123880
MOVE-IIB                
1 44398U 19038N   21275.25502623  .00004935  00000-0  27232-3 0  9991
2 44398  97.5920 238.8790 0022847 304.6219  55.2860 15.14205451123928
DOT-1                   
1 44399U 19038P   21274.85665996  .00002972  00000-0  17146-3 0  9992
2 44399  97.6023 238.3114 0022992 312.9266  47.0035 15.12933408123824
SONATE                  
1 44400U 19038Q   21275.14861820  .00002296  00000-0  13387-3 0  9994
2 44400  97.6000 238.5494 0023530 305.5607  54.3431 15.12782749123866
2019-038R               
1 44401U 19038R   21275.49429272  .00004035  00000-0  22575-3 0  9996
2 44401  97.5959 239.2620 0022820 302.2438  57.6583 15.13822653123959
