OBJECT_NAME,OBJECT_ID,EPOCH,MEAN_MOTION,ECCENTRICITY,INCLINATION,RA_OF_ASC_NODE,ARG_OF_PERICENTER,MEAN_ANOMALY,EPHEMERIS_TYPE,CLASSIFICATION_TYPE,NORAD_CAT_ID,ELEMENT_SET_NO,REV_AT_EPOCH,BSTAR,MEAN_MOTION_DOT,MEAN_MOTION_DDOT
PSAT2 (NO-104),2019-036R,2021-10-02T00:02:33.464544,15.16996563,.0312208,28.5272,134.8062,354.3457,5.3661,0,U,44354,999,12515,.39181E-3,.30712E-3,0
BRICSAT2 (NO-103),2019-036S,2021-10-02T10:49:27.419520,15.37843239,.0233907,28.5247,66.9621,104.5202,258.1463,0,U,44355,999,12586,.66393E-3,.69904E-3,-.47967E-5
2019-036U,2019-036U,2021-10-01T23:57:28.141632,15.17269845,.0312859,28.5245,132.5375,358.2878,1.6638,0,U,44357,999,12517,.37525E-3,.29984E-3,0
FORMOSAT 7-5,2019-036V,2021-10-02T01:37:38.769312,15.07961474,.0006894,23.9990,173.3314,71.9962,288.1292,0,U,44358,999,12267,.10633E-3,.2019E-4,0
CP9 (LEO),2019-036X,2021-10-02T10:59:52.888128,15.82876501,.009481,28.4966,325.9391,270.1651,88.8095,0,U,44360,999,12672,.10192E-2,.324452E-2,.27124E-4
2019-036Y,2019-036Y,2021-10-02T06:09:21.422016,15.76965931,.0112199,28.5071,334.6032,255.6920,103.1208,0,U,44361,999,12664,.94477E-3,.249866E-2,.11838E-4
RED-EYE 1 (PINOT),1998-067QJ,2021-10-02T07:34:55.425792,15.61752889,.0005068,51.6381,136.1719,278.9907,81.0513,0,U,44364,999,12887,.17938E-3,.15324E-3,0
PAINANI 1,2019-037A,2021-10-02T10:16:02.202528,15.42535147,.0002624,45.0053,21.0894,123.0931,237.0210,0,U,44365,999,12728,.2306E-3,.9888E-4,0
PROMETHEUS 2-9,2019-037B,2021-10-01T23:27:11.983392,15.48431293,.0001982,45.0093,7.1174,95.2957,264.8161,0,U,44366,999,12741,.54763E-3,.29467E-3,0
GLOBAL-3,2019-037C,2021-10-01T18:35:20.827104,15.41637838,.0006029,45.0079,23.0910,84.8100,275.3476,0,U,44367,999,12720,.22077E-3,.9166E-4,0
ELECTRON KICK STAGE R/B,2019-037D,2021-10-02T05:47:46.044096,15.53463084,.0004332,45.0039,347.6696,111.5381,248.5974,0,U,44368,999,12766,.43243E-3,.27802E-3,0
ACRUX 1,2019-037E,2021-10-02T09:50:09.322368,15.50067402,.0007221,45.0063,352.4230,98.0854,262.0857,0,U,44369,999,12757,.32683E-3,.18471E-3,0
SPACEBEE-9,2019-037F,2021-10-02T09:53:53.787840,15.67307320,.0006445,44.9950,324.2664,57.6474,302.5047,0,U,44370,999,12790,.72598E-3,.80719E-3,0
PROMETHEUS 2-7,2019-037K,2021-10-02T06:32:29.010336,15.49130177,.0001762,45.0068,3.3618,97.8903,262.2189,0,U,44374,999,12729,.39275E-3,.21533E-3,0
PROMETHEUS 2-6,2019-036AB,2021-10-02T01:30:23.198400,15.45523980,.0208635,28.5351,49.6003,131.8229,230.0390,0,U,44386,999,12472,.11205E-2,.135257E-2,-.18896E-5
METEOR-M2 2,2019-038A,2021-10-02T12:11:46.277664,14.23691522,.0001012,98.6824,233.9048,0.2427,359.8747,0,U,44387,999,11670,.91165E-5,-.23E-6,0
2019-038B,2019-038B,2021-10-02T09:50:02.033664,14.99350221,.0022975,97.7788,239.9343,21.8488,338.3709,0,U,44388,999,12271,.43141E-3,.5244E-4,0
ICEYE-X5,2019-038C,2021-10-02T09:39:32.937984,14.97239449,.0021426,97.7918,239.7634,18.4328,341.7671,0,U,44389,999,12266,.19001E-3,.2149E-4,0
ICEYE-X4,2019-038D,2021-10-02T09:36:53.470368,14.97040057,.0021224,97.7891,239.5338,18.9371,341.2637,0,U,44390,999,12266,.11971E-3,.1325E-4,0
NSL-1,2019-038E,2021-10-02T03:49:18.616800,14.98365616,.0020442,97.7850,239.9534,14.6084,345.5725,0,U,44391,999,12259,.26272E-3,.3084E-4,0
VDNH-80,2019-038G,2021-10-02T11:51:13.853376,15.14074185,.0019598,97.5985,239.7881,306.7964,176.8536,0,U,44392,999,12378,.18484E-3,.3309E-4,0
D-STAR ONE (LIGHTSAT),2019-038H,2021-10-01T21:08:05.559360,15.13978585,.001988,97.5997,239.0458,309.2803,50.6664,0,U,44393,999,12388,.20903E-3,.3742E-4,0
AMGU-1 (AMURSAT),2019-038J,2021-10-02T03:51:19.273536,15.13987818,.0020024,97.5987,239.2662,308.4279,51.5176,0,U,44394,999,12392,.21548E-3,.386E-4,0
2019-038K,2019-038K,2021-10-02T10:17:16.905696,15.12807785,.0023349,97.5999,238.6592,306.1415,170.8582,0,U,44395,999,12389,.12728E-3,.2181E-4,0
LEMUR-2-LILLYJO,2019-038L,2021-10-02T04:11:00.383136,15.14818538,.0022086,97.5888,238.8987,302.2547,57.6544,0,U,44396,999,12393,.24588E-3,.4526E-4,0
2019-038M,2019-038M,2021-10-02T04:03:09.713952,15.13459955,.0023448,97.5971,238.6550,303.6461,56.2567,0,U,44397,999,12388,.19523E-3,.3445E-4,0
MOVE-IIB,2019-038N,2021-10-02T06:07:14.266272,15.14205451,.0022847,97.5920,238.8790,304.6219,55.2860,0,U,44398,999,12392,.27232E-3,.4935E-4,0
DOT-1,2019-038P,2021-10-01T20:33:35.420544,15.12933408,.0022992,97.6023,238.3114,312.9266,47.0035,0,U,44399,999,12382,.17146E-3,.2972E-4,0
SONATE,2019-038Q,2021-10-02T03:34:00.612480,15.12782749,.002353,97.6000,238.5494,305.5607,54.3431,0,U,44400,999,12386,.13387E-3,.2296E-4,0
2019-038R,2019-038R,2021-10-02T11:51:46.891008,15.13822653,.002282,97.5959,239.2620,302.2438,57.6583,0,U,44401,999,12395,.22575E-3,.4035E-4,0
